NORAD_CAT_ID,OBJECT_NAME,OBJECT_TYPE,EPOCH,MEAN_MOTION,ECCENTRICITY,INCLINATION,RA_OF_ASC_NODE,ARG_OF_PERICENTER,MEAN_ANOMALY,BSTAR,MEAN_MOTION_DOT,MEAN_MOTION_DDOT,TLE_LINE0,TLE_LINE1,TLE_LINE2,SEMIMAJOR_AXIS,PERIOD,APOGEE,PERIGEE,DECAYED
55276.0,STARLINK-5261,PAYLOAD,2024-05-10 19:18:25,14.98330342,0.0002843,70.0,268.5416,269.8383,90.245,1.7173e-05,1.12e-06,0.0,0 STARLINK-5261,1 55276U 23010H   24131.80445946  .00000112  00000-0  17173-4 0  9999,2 55276  70.0000 268.5416 0002843 269.8383  90.2450 14.98330342 73223,6950.192,96.107,574.033,570.081,0.0
55276.0,STARLINK-5261,PAYLOAD,2024-05-11 11:19:43,14.98383453,0.0002634,70.0002,266.8588,272.3423,87.7435,-0.00017112,-2.137e-05,0.0,0 STARLINK-5261,1 55276U 23010H   24132.47202660 -.00002137  00000-0 -17112-3 0  9990,2 55276  70.0002 266.8588 0002634 272.3423  87.7435 14.98383453 73021,6950.028,96.104,573.723,570.062,0.0
55276.0,STARLINK-5261,PAYLOAD,2024-05-11 19:20:25,14.98325643,0.0002515,69.9999,266.0168,286.4362,73.652,-0.00010733,-1.373e-05,0.0,0 STARLINK-5261,1 55276U 23010H   24132.80585189 -.00001373  00000-0 -10733-3 0  9990,2 55276  69.9999 266.0168 0002515 286.4362  73.6520 14.98325643 73076,6950.206,96.107,573.819,570.323,0.0
55276.0,STARLINK-5261,PAYLOAD,2024-05-12 01:45:01,14.98280011,0.0002684,70.0004,265.3437,279.6031,80.4824,-0.00055327,-6.679e-05,0.0,0 STARLINK-5261,1 55276U 23010H   24133.07293496 -.00006679  00000-0 -55327-3 0  9999,2 55276  70.0004 265.3437 0002684 279.6031  80.4824 14.98280011 73118,6950.347,96.11,574.078,570.347,0.0
55276.0,STARLINK-5261,PAYLOAD,2024-05-12 12:57:57,14.98301062,0.0003308,69.9991,264.166,278.1781,81.9003,-0.00021481,-2.653e-05,0.0,0 STARLINK-5261,1 55276U 23010H   24133.54025435 -.00002653  00000-0 -21481-3 0  9999,2 55276  69.9991 264.1660 0003308 278.1781  81.9003 14.98301062 73187,6950.282,96.109,574.447,569.848,0.0
55276.0,STARLINK-5261,PAYLOAD,2024-05-12 14:34:06,14.98300885,0.0002697,70.0,263.9972,266.8346,93.2504,-0.0002196,-2.71e-05,0.0,0 STARLINK-5261,1 55276U 23010H   24133.60701473 -.00002710  00000-0 -21960-3 0  9995,2 55276  70.0000 263.9972 0002697 266.8346  93.2504 14.98300885 73493,6950.283,96.109,574.022,570.273,0.0
55276.0,STARLINK-5261,PAYLOAD,2024-05-12 17:46:21,14.98307938,0.0002809,70.0001,263.6614,267.8073,92.2764,-0.00015758,-1.972e-05,0.0,0 STARLINK-5261,1 55276U 23010H   24133.74053196 -.00001972  00000-0 -15758-3 0  9999,2 55276  70.0001 263.6614 0002809 267.8073  92.2764 14.98307938 73210,6950.261,96.108,574.078,570.174,0.0
55276.0,STARLINK-5261,PAYLOAD,2024-05-13 14:36:04,14.983518,0.0002819,69.9994,261.4694,270.6184,89.4652,-0.00026973,-3.312e-05,0.0,0 STARLINK-5261,1 55276U 23010H   24134.60838912 -.00003312  00000-0 -26973-3 0  9993,2 55276  69.9994 261.4694 0002819 270.6184  89.4652 14.98351800 73646,6950.125,96.106,573.95,570.031,0.0
55276.0,STARLINK-5261,PAYLOAD,2024-05-14 11:25:49,14.9830131,0.0002898,69.9991,259.2824,272.8379,87.2448,0.0010316,0.00012228,0.0,0 STARLINK-5261,1 55276U 23010H   24135.47626945  .00012228  00000-0  10316-2 0  9997,2 55276  69.9991 259.2824 0002898 272.8379  87.2448 14.98301310 73471,6950.282,96.109,574.161,570.132,0.0
55276.0,STARLINK-5261,PAYLOAD,2024-05-14 14:38:05,14.98308819,0.0002519,69.9989,258.9445,261.2518,98.8356,0.0010624,0.00012599,0.0,0 STARLINK-5261,1 55276U 23010H   24135.60978533  .00012599  00000-0  10624-2 0  9998,2 55276  69.9989 258.9445 0002519 261.2518  98.8356 14.98308819 73792,6950.258,96.108,573.874,570.373,0.0
55276.0,STARLINK-5261,PAYLOAD,2024-05-15 14:40:06,14.98341481,0.0003213,69.9985,256.4195,277.8507,82.2287,-0.00011051,-1.412e-05,0.0,0 STARLINK-5261,1 55276U 23010H   24136.61118785 -.00001412  00000-0 -11051-3 0  9995,2 55276  69.9985 256.4195 0003213 277.8507  82.2287 14.98341481 73945,6950.157,96.106,574.255,569.789,0.0
55276.0,STARLINK-5261,PAYLOAD,2024-05-15 17:52:22,14.98348821,0.0003272,69.9999,256.0873,279.7089,80.37,-6.851e-05,-9.11e-06,0.0,0 STARLINK-5261,1 55276U 23010H   24136.74470064 -.00000911  00000-0 -68510-4 0  9996,2 55276  69.9999 256.0873 0003272 279.7089  80.3700 14.98348821 73663,6950.135,96.106,574.274,569.726,0.0
55276.0,STARLINK-5261,PAYLOAD,2024-05-16 14:42:05,14.9835802,0.0002939,69.9994,253.8981,273.2324,86.8499,-6.0896e-05,-8.2e-06,0.0,0 STARLINK-5261,1 55276U 23010H   24137.61256361 -.00000820  00000-0 -60896-4 0  9993,2 55276  69.9994 253.8981 0002939 273.2324  86.8499 14.98358020 74099,6950.106,96.105,574.014,569.929,0.0
55276.0,STARLINK-5261,PAYLOAD,2024-05-16 17:54:21,14.98359762,0.0002927,69.9992,253.5604,275.9588,84.1238,-3.4281e-05,-5.02e-06,0.0,0 STARLINK-5261,1 55276U 23010H   24137.74607980 -.00000502  00000-0 -34281-4 0  9990,2 55276  69.9992 253.5604 0002927 275.9588  84.1238 14.98359762 73819,6950.101,96.105,574.0,569.932,0.0
55276.0,STARLINK-5261,PAYLOAD,2024-05-17 11:31:52,14.98319019,0.0002734,70.0005,251.7101,268.7077,91.3769,-0.00015499,-1.941e-05,0.0,0 STARLINK-5261,1 55276U 23010H   24138.48046608 -.00001941  00000-0 -15499-3 0  9993,2 55276  70.0005 251.7101 0002734 268.7077  91.3769 14.98319019 73920,6950.227,96.108,573.992,570.192,0.0
55276.0,STARLINK-5261,PAYLOAD,2024-05-18 13:09:59,14.98341298,0.000286,70.0012,249.0172,271.8998,88.1833,0.00010855,1.203e-05,0.0,0 STARLINK-5261,1 55276U 23010H   24139.54860677  .00001203  00000-0  10855-3 0  9991,2 55276  70.0012 249.0172 0002860 271.8998  88.1833 14.98341298 74081,6950.158,96.106,574.011,570.035,0.0
55276.0,STARLINK-5261,PAYLOAD,2024-05-18 14:46:07,14.98345371,0.000294,70.0005,248.8489,274.5531,85.5292,7.612e-05,8.16e-06,0.0,0 STARLINK-5261,1 55276U 23010H   24139.61536472  .00000816  00000-0  76120-4 0  9999,2 55276  70.0005 248.8489 0002940 274.5531  85.5292 14.98345371 74393,6950.145,96.106,574.054,569.967,0.0
55276.0,STARLINK-5261,PAYLOAD,2024-05-18 16:22:14,14.98353385,0.000326,69.9988,248.6785,275.2899,84.7888,9.3639e-05,1.025e-05,0.0,0 STARLINK-5261,1 55276U 23010H   24139.68211715  .00001025  00000-0  93639-4 0  9993,2 55276  69.9988 248.6785 0003260 275.2899  84.7888 14.98353385 74103,6950.121,96.105,574.251,569.72,0.0
55276.0,STARLINK-5261,PAYLOAD,2024-05-19 00:22:56,14.98332887,0.0002221,70.0031,247.8376,279.1954,80.8954,6.325e-05,6.62e-06,0.0,0 STARLINK-5261,1 55276U 23010H   24140.01593084  .00000662  00000-0  63250-4 0  9996,2 55276  70.0031 247.8376 0002221 279.1954  80.8954 14.98332887 74153,6950.184,96.107,573.593,570.505,0.0
55276.0,STARLINK-5261,PAYLOAD,2024-05-19 11:35:55,14.98305473,0.000316,69.999,246.6597,268.958,91.1217,-0.00012916,-1.633e-05,0.0,0 STARLINK-5261,1 55276U 23010H   24140.48327601 -.00001633  00000-0 -12916-3 0  9990,2 55276  69.9990 246.6597 0003160 268.9580  91.1217 14.98305473 74529,6950.269,96.109,574.33,569.937,0.0
55276.0,STARLINK-5261,PAYLOAD,2024-05-19 18:00:27,14.98312048,0.0002644,70.0005,245.9885,263.6511,96.4347,-2.2635e-05,-3.63e-06,0.0,0 STARLINK-5261,1 55276U 23010H   24140.75031259 -.00000363  00000-0 -22635-4 0  9990,2 55276  70.0005 245.9885 0002644 263.6511  96.4347 14.98312048 74262,6950.248,96.108,573.951,570.276,0.0
55276.0,STARLINK-5261,PAYLOAD,2024-05-20 11:37:54,14.98336815,0.0003152,69.9999,244.1343,275.5924,84.4875,2.7874e-05,2.4e-06,0.0,0 STARLINK-5261,1 55276U 23010H   24141.48465645  .00000240  00000-0  27874-4 0  9993,2 55276  69.9999 244.1343 0003152 275.5924  84.4875 14.98336815 74379,6950.172,96.107,574.228,569.846,0.0
55276.0,STARLINK-5261,PAYLOAD,2024-05-20 14:50:09,14.98347159,0.0002706,70.0001,243.7989,266.0095,94.0755,2.7364e-05,2.34e-06,0.0,0 STARLINK-5261,1 55276U 23010H   24141.61816856  .00000234  00000-0  27364-4 0  9999,2 55276  70.0001 243.7989 0002706 266.0095  94.0755 14.98347159 74697,6950.14,96.106,573.886,570.124,0.0
55276.0,STARLINK-5261,PAYLOAD,2024-05-20 16:26:17,14.98349051,0.0002679,70.0003,243.6309,265.5987,94.4866,5.2491e-05,5.34e-06,0.0,0 STARLINK-5261,1 55276U 23010H   24141.68492603  .00000534  00000-0  52491-4 0  9998,2 55276  70.0003 243.6309 0002679 265.5987  94.4866 14.98349051 74406,6950.134,96.106,573.861,570.137,0.0
55276.0,STARLINK-5261,PAYLOAD,2024-05-21 13:16:03,14.98322094,0.000296,70.0002,241.4428,262.6911,97.3912,7.5133e-05,8.03e-06,0.0,0 STARLINK-5261,1 55276U 23010H   24142.55282221  .00000803  00000-0  75133-4 0  9995,2 55276  70.0002 241.4428 0002960 262.6911  97.3912 14.98322094 74537,6950.217,96.108,574.14,570.025,0.0
55276.0,STARLINK-5261,PAYLOAD,2024-05-21 14:52:11,14.98320214,0.0002632,70.0007,241.2754,259.7387,100.3475,0.00015321,1.735e-05,0.0,0 STARLINK-5261,1 55276U 23010H   24142.61958090  .00001735  00000-0  15321-3 0  9993,2 55276  70.0007 241.2754 0002632 259.7387 100.3475 14.98320214 74847,6950.223,96.108,573.917,570.259,0.0
55276.0,STARLINK-5261,PAYLOAD,2024-05-21 16:28:19,14.98328305,0.0003094,69.9995,241.106,266.0144,94.0661,0.00011708,1.304e-05,0.0,0 STARLINK-5261,1 55276U 23010H   24142.68633713  .00001304  00000-0  11708-3 0  9999,2 55276  69.9995 241.1060 0003094 266.0144  94.0661 14.98328305 74850,6950.198,96.107,574.214,569.913,0.0
55276.0,STARLINK-5261,PAYLOAD,2024-05-22 11:41:55,14.98342288,0.0002832,70.0002,239.0867,262.9888,97.0949,-5.2707e-05,-7.22e-06,0.0,0 STARLINK-5261,1 55276U 23010H   24143.48745124 -.00000722  00000-0 -52707-4 0  9998,2 55276  70.0002 239.0867 0002832 262.9888  97.0949 14.98342288 74670,6950.155,96.106,573.988,570.052,0.0
55276.0,STARLINK-5261,PAYLOAD,2024-05-23 05:19:24,14.98332034,0.0002902,70.0002,237.2357,259.2623,100.8209,1.9419e-05,1.39e-06,0.0,0 STARLINK-5261,1 55276U 23010H   24144.22181224  .00000139  00000-0  19419-4 0  9999,2 55276  70.0002 237.2357 0002902 259.2623 100.8209 14.98332034 74780,6950.187,96.107,574.069,570.035,0.0
55276.0,STARLINK-5261,PAYLOAD,2024-05-23 13:20:05,14.98323105,0.0003051,69.9999,236.3923,265.7377,94.3433,7.015e-05,7.44e-06,0.0,0 STARLINK-5261,1 55276U 23010H   24144.55561700  .00000744  00000-0  70150-4 0  9997,2 55276  69.9999 236.3923 0003051 265.7377  94.3433 14.98323105 74836,6950.214,96.107,574.2,569.959,0.0
